GLOBALSTAR M067         
1 32263U 07048A   25068.92279351 -.00000048  00000+0  36673-3 0  9994
2 32263  51.9748 326.3899 0001444 107.1292 334.8340 12.40667676797404
GLOBALSTAR M070         
1 32264U 07048B   25069.16300047 -.00000074  00000+0  16457-3 0  9996
2 32264  51.9748  70.1686 0000118 119.9659 318.7680 12.62313584802144
GLOBALSTAR M066         
1 32265U 07048C   25068.90892042 -.00000046  00000+0  39482-3 0  9991
2 32265  51.9657 312.9691 0001948  35.2787  48.8266 12.35250971803031
GLOBALSTAR M068         
1 32266U 07048D   25069.52611826 -.00000086  00000+0  96855-4 0  9992
2 32266  51.9866 243.0081 0000018 308.1480  90.5744 12.62816573805381
GLOBALSTAR M079         
1 37188U 10054A   25069.20095912 -.00000099  00000+0  28215-4 0  9997
2 37188  52.0030  81.1149 0000617  88.3281 351.0123 12.62271464664632
GLOBALSTAR M074         
1 37189U 10054B   25068.53467300 -.00000090  00000+0  77419-4 0  9998
2 37189  52.0004  82.4823 0000438 129.7627  39.3290 12.62267125664474
GLOBALSTAR M076         
1 37190U 10054C   25069.17326926 -.00000093  00000+0  60819-4 0  9998
2 37190  52.0018  80.6956 0000728 117.2288 318.1300 12.62278349664633
GLOBALSTAR M077         
1 37191U 10054D   25069.33560226 -.00000105  00000+0 -48712-5 0  9994
2 37191  52.0089  37.0329 0000420  82.7251  68.1346 12.62271290665403
